EUTELSAT 7A             
1 28187U 04008A   25267.12114661  .00000105  00000+0  00000+0 0  9996
2 28187   5.1501  75.1716 0001017  74.4967 117.9705  1.00268794 78689
EUTELSAT 174A           
1 28924U 05052A   25267.11169991  .00000012  00000+0  00000+0 0  9997
2 28924   3.5405  79.8209 0006124 105.5925  32.0673  1.00275477 49668
EUTELSAT HOTBIRD 13B    
1 29270U 06032A   25267.15524873  .00000156  00000+0  00000+0 0  9998
2 29270   0.9691  85.1520 0004047  90.4469 276.6166  1.00272685 44648
EUTELSAT HOTBIRD 13C    
1 33459U 08065A   25267.12961394 -.00000100  00000+0  00000+0 0  9990
2 33459   2.2612  82.3390 0004812 123.5549 191.4952  1.00272226 44672
EUTELSAT 36B            
1 36101U 09065A   25267.23004237  .00000000  00000+0  00000+0 0  9992
2 36101   0.0259 332.8185 0005857 216.1967 307.6124  1.00273351 58048
EUTELSAT KA-SAT 9A      
1 37258U 10069A   25266.57953042  .00000060  00000+0  00000+0 0  9991
2 37258   0.0559 328.0354 0002858 185.3678  66.9257  1.00273407 41332
EUTELSAT 7 WEST A       
1 37816U 11051A   25267.12405883 -.00000061  00000+0  00000+0 0  9992
2 37816   0.0785  28.8592 0005969 158.6277 213.0716  1.00272799 51212
EUTELSAT 16A            
1 37836U 11057A   25267.22319568  .00000104  00000+0  00000+0 0  9992
2 37836   0.0647 349.2955 0005378 194.0243 276.3493  1.00271867  4661
